ONEWEB-0628             
1 55169U 23004AF  25124.84908097  .00000352  00000+0  94401-3 0  9994
2 55169  87.8869  71.8757 0002710  78.9638 281.1795 13.12441474114471
ONEWEB-0629             
1 55170U 23004AG  25124.88065844  .00000059  00000+0  11807-3 0  9997
2 55170  87.9055  87.1759 0002230  74.7571 285.3807 13.17650734113813
ONEWEB-0631             
1 55171U 23004AH  25124.80959559  .00000131  00000+0  29914-3 0  9994
2 55171  87.9150  56.5946 0002135  95.7349 264.4026 13.18686358115857
ONEWEB-0709             
1 55172U 23004AJ  25124.86402093  .00000147  00000+0  37912-3 0  9991
2 55172  87.8801 102.4872 0001716 113.9667 246.1641 13.11413459112354
ONEWEB-0710             
1 55173U 23004AK  25124.81904898 -.00000003  00000+0 -40598-4 0  9995
2 55173  87.9037  87.2013 0002177  85.6362 274.5018 13.17651323113807
ONEWEB-0711             
1 55174U 23004AL  25124.83521312  .00000335  00000+0  90917-3 0  9999
2 55174  87.8804 102.4605 0002874  87.9102 272.2355 13.11418625112311
ONEWEB-0713             
1 55175U 23004AM  25124.85385829  .00000482  00000+0  13250-2 0  9990
2 55175  87.8802 102.4647 0002329  86.7567 273.3827 13.11414558112309
ONEWEB-0715             
1 55176U 23004AN  25125.45915253  .00000606  00000+0  16728-2 0  9999
2 55176  87.8803 102.3442 0002059  96.9573 263.1789 13.11417162112435
